CCSDS_OMM_VERS = 2.0
CREATION_DATE  = 
ORIGINATOR     = 

OBJECT_NAME    = CZ-8A R/B
OBJECT_ID      = 2026-047K
CENTER_NAME    = EARTH
REF_FRAME      = TEME
TIME_SYSTEM    = UTC
MEAN_ELEMENT_THEORY = SGP/SGP4

EPOCH          = 2026-03-24T23:18:30.924864
MEAN_MOTION    = 14.12231003
ECCENTRICITY   = .00447661
INCLINATION    = 49.9541
RA_OF_ASC_NODE = 7.4809
ARG_OF_PERICENTER = 190.8358
MEAN_ANOMALY   = 169.1589

EPHEMERIS_TYPE = 0
CLASSIFICATION_TYPE = U
NORAD_CAT_ID   = 68138
ELEMENT_SET_NO = 999
REV_AT_EPOCH   = 171
BSTAR          = .10773424E-3
MEAN_MOTION_DOT = .47E-6
MEAN_MOTION_DDOT = 0

CCSDS_OMM_VERS = 2.0
CREATION_DATE  = 
ORIGINATOR     = 

OBJECT_NAME    = SHIYAN-30 03
OBJECT_ID      = 2026-048A
CENTER_NAME    = EARTH
REF_FRAME      = TEME
TIME_SYSTEM    = UTC
MEAN_ELEMENT_THEORY = SGP/SGP4

EPOCH          = 2026-03-24T23:09:54.602784
MEAN_MOTION    = 14.91701535
ECCENTRICITY   = .00036574
INCLINATION    = 35.0007
RA_OF_ASC_NODE = 52.5062
ARG_OF_PERICENTER = 327.2140
MEAN_ANOMALY   = 32.8337

EPHEMERIS_TYPE = 0
CLASSIFICATION_TYPE = U
NORAD_CAT_ID   = 68139
ELEMENT_SET_NO = 999
REV_AT_EPOCH   = 178
BSTAR          = .21763023E-3
MEAN_MOTION_DOT = .2204E-4
MEAN_MOTION_DDOT = 0

CCSDS_OMM_VERS = 2.0
CREATION_DATE  = 
ORIGINATOR     = 

OBJECT_NAME    = SHIYAN-30 04
OBJECT_ID      = 2026-048B
CENTER_NAME    = EARTH
REF_FRAME      = TEME
TIME_SYSTEM    = UTC
MEAN_ELEMENT_THEORY = SGP/SGP4

EPOCH          = 2026-03-24T23:10:58.265760
MEAN_MOTION    = 14.91711067
ECCENTRICITY   = .00021617
INCLINATION    = 34.9922
RA_OF_ASC_NODE = 52.5105
ARG_OF_PERICENTER = 325.2649
MEAN_ANOMALY   = 34.7914

EPHEMERIS_TYPE = 0
CLASSIFICATION_TYPE = U
NORAD_CAT_ID   = 68140
ELEMENT_SET_NO = 999
REV_AT_EPOCH   = 178
BSTAR          = .20844906E-3
MEAN_MOTION_DOT = .2111E-4
MEAN_MOTION_DDOT = 0

CCSDS_OMM_VERS = 2.0
CREATION_DATE  = 
ORIGINATOR     = 

OBJECT_NAME    = CZ-2D R/B
OBJECT_ID      = 2026-048C
CENTER_NAME    = EARTH
REF_FRAME      = TEME
TIME_SYSTEM    = UTC
MEAN_ELEMENT_THEORY = SGP/SGP4

EPOCH          = 2026-03-25T00:06:07.848864
MEAN_MOTION    = 14.95547256
ECCENTRICITY   = .00148967
INCLINATION    = 35.1300
RA_OF_ASC_NODE = 52.1601
ARG_OF_PERICENTER = 99.8083
MEAN_ANOMALY   = 260.4308

EPHEMERIS_TYPE = 0
CLASSIFICATION_TYPE = U
NORAD_CAT_ID   = 68141
ELEMENT_SET_NO = 999
REV_AT_EPOCH   = 179
BSTAR          = .13525112E-3
MEAN_MOTION_DOT = .15E-4
MEAN_MOTION_DDOT = 0

CCSDS_OMM_VERS = 2.0
CREATION_DATE  = 
ORIGINATOR     = 

OBJECT_NAME    = STARLINK-36604
OBJECT_ID      = 2026-049A
CENTER_NAME    = EARTH
REF_FRAME      = TEME
TIME_SYSTEM    = UTC
MEAN_ELEMENT_THEORY = SGP/SGP4

EPOCH          = 2026-03-24T22:00:00.999936
MEAN_MOTION    = 15.81470475
ECCENTRICITY   = .00014142
INCLINATION    = 97.2815
RA_OF_ASC_NODE = 103.8774
ARG_OF_PERICENTER = 88.6269
MEAN_ANOMALY   = 243.5159

EPHEMERIS_TYPE = 0
CLASSIFICATION_TYPE = U
NORAD_CAT_ID   = 68142
ELEMENT_SET_NO = 999
REV_AT_EPOCH   = 307
BSTAR          = -.47006314E-2
MEAN_MOTION_DOT = -.843398E-2
MEAN_MOTION_DDOT = 0

CCSDS_OMM_VERS = 2.0
CREATION_DATE  = 
ORIGINATOR     = 

OBJECT_NAME    = STARLINK-36995
OBJECT_ID      = 2026-049B
CENTER_NAME    = EARTH
REF_FRAME      = TEME
TIME_SYSTEM    = UTC
MEAN_ELEMENT_THEORY = SGP/SGP4

EPOCH          = 2026-03-24T22:00:00.999936
MEAN_MOTION    = 15.81750225
ECCENTRICITY   = .00012709
INCLINATION    = 97.2815
RA_OF_ASC_NODE = 103.8789
ARG_OF_PERICENTER = 84.1418
MEAN_ANOMALY   = 252.0810

EPHEMERIS_TYPE = 0
CLASSIFICATION_TYPE = U
NORAD_CAT_ID   = 68143
ELEMENT_SET_NO = 999
REV_AT_EPOCH   = 306
BSTAR          = -.65043911E-2
MEAN_MOTION_DOT = -.1162361E-1
MEAN_MOTION_DDOT = 0

CCSDS_OMM_VERS = 2.0
CREATION_DATE  = 
ORIGINATOR     = 

OBJECT_NAME    = STARLINK-37020
OBJECT_ID      = 2026-049C
CENTER_NAME    = EARTH
REF_FRAME      = TEME
TIME_SYSTEM    = UTC
MEAN_ELEMENT_THEORY = SGP/SGP4

EPOCH          = 2026-03-24T22:00:00.999936
MEAN_MOTION    = 15.81655635
ECCENTRICITY   = .00010442
INCLINATION    = 97.2812
RA_OF_ASC_NODE = 103.8821
ARG_OF_PERICENTER = 74.5178
MEAN_ANOMALY   = 270.3303

EPHEMERIS_TYPE = 0
CLASSIFICATION_TYPE = U
NORAD_CAT_ID   = 68144
ELEMENT_SET_NO = 999
REV_AT_EPOCH   = 306
BSTAR          = -.61272982E-2
MEAN_MOTION_DOT = -.1078242E-1
MEAN_MOTION_DDOT = 0

CCSDS_OMM_VERS = 2.0
CREATION_DATE  = 
ORIGINATOR     = 

OBJECT_NAME    = STARLINK-36244
OBJECT_ID      = 2026-049D
CENTER_NAME    = EARTH
REF_FRAME      = TEME
TIME_SYSTEM    = UTC
MEAN_ELEMENT_THEORY = SGP/SGP4

EPOCH          = 2026-03-24T22:00:00.999936
MEAN_MOTION    = 15.81335128
ECCENTRICITY   = .00009492
INCLINATION    = 97.2804
RA_OF_ASC_NODE = 103.8851
ARG_OF_PERICENTER = 108.9242
MEAN_ANOMALY   = 244.6842

EPHEMERIS_TYPE = 0
CLASSIFICATION_TYPE = U
NORAD_CAT_ID   = 68145
ELEMENT_SET_NO = 999
REV_AT_EPOCH   = 307
BSTAR          = -.40699418E-2
MEAN_MOTION_DOT = -.734678E-2
MEAN_MOTION_DDOT = 0

CCSDS_OMM_VERS = 2.0
CREATION_DATE  = 
ORIGINATOR     = 

OBJECT_NAME    = STARLINK-36980
OBJECT_ID      = 2026-049E
CENTER_NAME    = EARTH
REF_FRAME      = TEME
TIME_SYSTEM    = UTC
MEAN_ELEMENT_THEORY = SGP/SGP4

EPOCH          = 2026-03-24T22:00:00.999936
MEAN_MOTION    = 15.81210408
ECCENTRICITY   = .00012896
INCLINATION    = 97.2803
RA_OF_ASC_NODE = 103.8836
ARG_OF_PERICENTER = 105.2370
MEAN_ANOMALY   = 244.1706

EPHEMERIS_TYPE = 0
CLASSIFICATION_TYPE = U
NORAD_CAT_ID   = 68146
ELEMENT_SET_NO = 999
REV_AT_EPOCH   = 306
BSTAR          = -.30984456E-2
MEAN_MOTION_DOT = -.566885E-2
MEAN_MOTION_DDOT = 0

CCSDS_OMM_VERS = 2.0
CREATION_DATE  = 
ORIGINATOR     = 

OBJECT_NAME    = STARLINK-37055
OBJECT_ID      = 2026-049F
CENTER_NAME    = EARTH
REF_FRAME      = TEME
TIME_SYSTEM    = UTC
MEAN_ELEMENT_THEORY = SGP/SGP4

EPOCH          = 2026-03-24T22:00:00.999936
MEAN_MOTION    = 15.81658496
ECCENTRICITY   = .00016843
INCLINATION    = 97.2811
RA_OF_ASC_NODE = 103.8802
ARG_OF_PERICENTER = 88.1599
MEAN_ANOMALY   = 252.4434

EPHEMERIS_TYPE = 0
CLASSIFICATION_TYPE = U
NORAD_CAT_ID   = 68147
ELEMENT_SET_NO = 999
REV_AT_EPOCH   = 306
BSTAR          = -.65982089E-2
MEAN_MOTION_DOT = -.117307E-1
MEAN_MOTION_DDOT = 0

CCSDS_OMM_VERS = 2.0
CREATION_DATE  = 
ORIGINATOR     = 

OBJECT_NAME    = STARLINK-36981
OBJECT_ID      = 2026-049G
CENTER_NAME    = EARTH
REF_FRAME      = TEME
TIME_SYSTEM    = UTC
MEAN_ELEMENT_THEORY = SGP/SGP4

EPOCH          = 2026-03-24T22:00:00.999936
MEAN_MOTION    = 15.81427367
ECCENTRICITY   = .00013541
INCLINATION    = 97.2798
RA_OF_ASC_NODE = 103.8865
ARG_OF_PERICENTER = 78.5722
MEAN_ANOMALY   = 279.2526

EPHEMERIS_TYPE = 0
CLASSIFICATION_TYPE = U
NORAD_CAT_ID   = 68148
ELEMENT_SET_NO = 999
REV_AT_EPOCH   = 306
BSTAR          = -.46827246E-2
MEAN_MOTION_DOT = -.83892E-2
MEAN_MOTION_DDOT = 0

CCSDS_OMM_VERS = 2.0
CREATION_DATE  = 
ORIGINATOR     = 

OBJECT_NAME    = STARLINK-36992
OBJECT_ID      = 2026-049H
CENTER_NAME    = EARTH
REF_FRAME      = TEME
TIME_SYSTEM    = UTC
MEAN_ELEMENT_THEORY = SGP/SGP4

EPOCH          = 2026-03-24T22:00:00.999936
MEAN_MOTION    = 15.81634243
ECCENTRICITY   = .00010369
INCLINATION    = 97.2798
RA_OF_ASC_NODE = 103.8886
ARG_OF_PERICENTER = 96.5280
MEAN_ANOMALY   = 265.4318

EPHEMERIS_TYPE = 0
CLASSIFICATION_TYPE = U
NORAD_CAT_ID   = 68149
ELEMENT_SET_NO = 999
REV_AT_EPOCH   = 306
BSTAR          = -.59003659E-2
MEAN_MOTION_DOT = -.1041865E-1
MEAN_MOTION_DDOT = 0

