CZ-8A R/B               
1 68138U 26047K   26083.97119126  .00000047  00000+0  10773-3 0  9991
2 68138  49.9541   7.4809 0044766 190.8358 169.1589 14.12231003  1714
SHIYAN-30 03            
1 68139U 26048A   26083.96521531  .00002204  00000+0  21763-3 0  9997
2 68139  35.0007  52.5062 0003657 327.2140  32.8337 14.91701535  1782
SHIYAN-30 04            
1 68140U 26048B   26083.96595215  .00002111  00000+0  20845-3 0  9996
2 68140  34.9922  52.5105 0002161 325.2649  34.7914 14.91711067  1780
CZ-2D R/B               
1 68141U 26048C   26084.00425751  .00001500  00000+0  13525-3 0  9998
2 68141  35.1300  52.1601 0014896  99.8083 260.4308 14.95547256  1792
STARLINK-36604          
1 68142U 26049A   26083.91667824 -.00843398  00000+0 -47006-2 0  9999
2 68142  97.2815 103.8774 0001414  88.6269 243.5159 15.81470475  3075
STARLINK-36995          
1 68143U 26049B   26083.91667824 -.01162361  00000+0 -65044-2 0  9997
2 68143  97.2815 103.8789 0001270  84.1418 252.0810 15.81750225  3061
STARLINK-37020          
1 68144U 26049C   26083.91667824 -.01078242  00000+0 -61273-2 0  9992
2 68144  97.2812 103.8821 0001044  74.5178 270.3303 15.81655635  3060
STARLINK-36244          
1 68145U 26049D   26083.91667824 -.00734678  00000+0 -40699-2 0  9993
2 68145  97.2804 103.8851 0000949 108.9242 244.6842 15.81335128  3077
STARLINK-36980          
1 68146U 26049E   26083.91667824 -.00566885  00000+0 -30984-2 0  9993
2 68146  97.2803 103.8836 0001289 105.2370 244.1706 15.81210408  3066
STARLINK-37055          
1 68147U 26049F   26083.91667824 -.01173070  00000+0 -65982-2 0  9991
2 68147  97.2811 103.8802 0001684  88.1599 252.4434 15.81658496  3063
STARLINK-36981          
1 68148U 26049G   26083.91667824 -.00838920  00000+0 -46827-2 0  9990
2 68148  97.2798 103.8865 0001354  78.5722 279.2526 15.81427367  3062
STARLINK-36992          
1 68149U 26049H   26083.91667824 -.01041865  00000+0 -59004-2 0  9997
2 68149  97.2798 103.8886 0001036  96.5280 265.4318 15.81634243  3061
